RSP-03                  
1 65732U 98067XL  26040.65947751  .00986718  52171-3  14470-2 0  9995
2 65732  51.6146 190.8360 0007807 307.6496  52.3806 16.04479219 22485
YOTSUBA-KULOVER         
1 65941U 98067XN  26040.79430295  .00132212  00000+0  10125-2 0  9997
2 65941  51.6244 200.8737 0004139 266.2769  93.7756 15.71186037 19108
BOTAN                   
1 65942U 98067XP  26040.65988549  .00352215  00000+0  13981-2 0  9993
2 65942  51.6174 197.6749 0006446 289.8323  70.1986 15.85179997 19136
E-KAGAKU-1              
1 65943U 98067XQ  26040.47712994  .00140038  00000+0  10797-2 0  9993
2 65943  51.6272 202.5184 0003685 280.4332  79.6250 15.70999257 19056
HRC MONOBLOCK CAMERA    
1 66052U 98067XR  26040.71829995  .00047675  00000+0  59664-3 0  9992
2 66052  51.6276 206.3794 0001234 357.5196   2.5791 15.59309115 18029
HTV-X1                  
1 66174U 25241A   26040.82615589  .00009178  00000+0  17726-3 0  9994
2 66174  51.6312 210.0960 0011100  81.8534 278.3713 15.48509326   514
SZ-21 MODULE            
1 66515U 25246C   26040.27417321  .00037161  00000+0  34919-3 0  9997
2 66515  41.4766  17.9863 0002766 286.9466  73.1072 15.66393879 13617
SHENZHOU-22             
1 66645U 25272A   26040.41958423  .00017568  00000+0  21981-3 0  9993
2 66645  41.4684  20.0103 0004696  39.0629 321.0548 15.59383314267646
SOYUZ-MS 28             
1 66664U 25275A   26040.82615588  .00009178  00000+0  17726-3 0  9994
2 66664  51.6312 210.0960 0011100  81.8534 278.3713 15.48509326552015
DUPLEX                  
1 66906U 98067XS  26040.95586145  .00033386  00000+0  50675-3 0  9990
2 66906  51.6289 207.9654 0001364  79.6140 280.5004 15.54274591 10816
ISS OBJECT XT           
1 66907U 98067XT  26040.68188778  .00106040  00000+0  11888-2 0  9991
2 66907  51.6269 207.6344 0001803 243.6118 116.4691 15.61838128 10790
ISS OBJECT XU           
1 66908U 98067XU  26040.68129378  .00107825  00000+0  12072-2 0  9991
2 66908  51.6265 207.6278 0001635 246.4379 113.6443 15.61865115 10796
